NORAD_CAT_ID,OBJECT_NAME,OBJECT_TYPE,EPOCH,MEAN_MOTION,ECCENTRICITY,INCLINATION,RA_OF_ASC_NODE,ARG_OF_PERICENTER,MEAN_ANOMALY,BSTAR,MEAN_MOTION_DOT,MEAN_MOTION_DDOT,TLE_LINE0,TLE_LINE1,TLE_LINE2,SEMIMAJOR_AXIS,PERIOD,APOGEE,PERIGEE,DECAYED
52092.0,STARLINK-3716,PAYLOAD,2024-02-22 16:31:38,15.08842167,0.0001234,53.217,198.0538,95.2669,264.8464,1.3118e-05,-7.9e-07,0.0,0 STARLINK-3716,1 52092U 22029E   24053.68863706 -.00000079  00000-0  13118-4 0  9996,2 52092  53.2170 198.0538 0001234  95.2669 264.8464 15.08842167108037,6917.874,95.437,540.592,538.885,0.0
52092.0,STARLINK-3716,PAYLOAD,2024-02-23 14:47:02,15.08839732,0.000119,53.2171,193.8916,97.7473,262.3654,6.2186e-05,7.02e-06,0.0,0 STARLINK-3716,1 52092U 22029E   24054.61599775  .00000702  00000-0  62186-4 0  9993,2 52092  53.2171 193.8916 0001190  97.7473 262.3654 15.08839732108175,6917.881,95.438,540.569,538.923,0.0
52092.0,STARLINK-3716,PAYLOAD,2024-02-23 17:57:48,15.08841306,0.0001217,53.2178,193.2956,98.1807,261.9323,0.00011905,1.607e-05,0.0,0 STARLINK-3716,1 52092U 22029E   24054.74847498  .00001607  00000-0  11905-3 0  9992,2 52092  53.2178 193.2956 0001217  98.1807 261.9323 15.08841306108196,6917.876,95.437,540.583,538.899,0.0
52092.0,STARLINK-3716,PAYLOAD,2024-02-24 08:16:17,15.08834088,0.0001384,53.2169,190.617,83.8255,276.2895,-3.4698e-05,-8.4e-06,0.0,0 STARLINK-3716,1 52092U 22029E   24055.34464781 -.00000840  00000-0 -34698-4 0  9994,2 52092  53.2169 190.6170 0001384  83.8255 276.2895 15.08834088108280,6917.898,95.438,540.721,538.806,0.0
52092.0,STARLINK-3716,PAYLOAD,2024-02-24 13:02:27,15.08834079,0.0001462,53.2167,189.725,79.2798,280.8359,-2.9928e-05,-7.64e-06,0.0,0 STARLINK-3716,1 52092U 22029E   24055.54336867 -.00000764  00000-0 -29928-4 0  9994,2 52092  53.2167 189.7250 0001462  79.2798 280.8359 15.08834079108314,6917.898,95.438,540.775,538.752,0.0
52092.0,STARLINK-3716,PAYLOAD,2024-02-25 12:53:13,15.08846436,0.0001451,53.2169,185.2633,85.538,274.5778,4.8355e-05,4.82e-06,0.0,0 STARLINK-3716,1 52092U 22029E   24056.53695888  .00000482  00000-0  48355-4 0  9995,2 52092  53.2169 185.2633 0001451  85.5380 274.5778 15.08846436108468,6917.861,95.437,540.729,538.722,0.0
52092.0,STARLINK-3716,PAYLOAD,2024-02-25 14:28:36,15.08847504,0.0001458,53.2163,184.9657,89.3883,270.7277,7.2195e-05,8.61e-06,0.0,0 STARLINK-3716,1 52092U 22029E   24056.60319715  .00000861  00000-0  72195-4 0  9995,2 52092  53.2163 184.9657 0001458  89.3883 270.7277 15.08847504108471,6917.857,95.437,540.731,538.714,0.0
52092.0,STARLINK-3716,PAYLOAD,2024-02-25 17:39:21,15.0885691,0.0001479,53.2174,184.3713,98.2991,261.8169,0.00017033,2.425e-05,0.0,0 STARLINK-3716,1 52092U 22029E   24056.73566774  .00002425  00000-0  17033-3 0  9995,2 52092  53.2174 184.3713 0001479  98.2991 261.8169 15.08856910108496,6917.829,95.436,540.717,538.671,0.0
52092.0,STARLINK-3716,PAYLOAD,2024-02-26 01:36:18,15.0883858,0.000119,53.217,182.8853,92.21,267.9028,-5.8739e-05,-1.223e-05,0.0,0 STARLINK-3716,1 52092U 22029E   24057.06688357 -.00001223  00000-0 -58739-4 0  9990,2 52092  53.2170 182.8853 0001190  92.2100 267.9028 15.08838580108546,6917.885,95.438,540.573,538.927,0.0
52092.0,STARLINK-3716,PAYLOAD,2024-02-26 14:19:24,15.08828524,0.0001624,53.2187,180.504,104.9858,255.1314,-5.6675e-05,-1.19e-05,0.0,0 STARLINK-3716,1 52092U 22029E   24057.59681636 -.00001190  00000-0 -56675-4 0  9991,2 52092  53.2187 180.5040 0001624 104.9858 255.1314 15.08828524108623,6917.915,95.438,540.904,538.657,0.0
52092.0,STARLINK-3716,PAYLOAD,2024-02-26 17:30:10,15.08836297,0.0001432,53.2167,179.91,85.858,274.2575,5.5871e-05,6.01e-06,0.0,0 STARLINK-3716,1 52092U 22029E   24057.72929083  .00000601  00000-0  55871-4 0  9998,2 52092  53.2167 179.9100 0001432  85.8580 274.2575 15.08836297108645,6917.892,95.438,540.747,538.766,0.0
52092.0,STARLINK-3716,PAYLOAD,2024-02-27 07:48:38,15.08847506,0.0001175,53.2161,177.2349,105.5517,254.5604,-8.7263e-05,-1.677e-05,0.0,0 STARLINK-3716,1 52092U 22029E   24058.32544799 -.00001677  00000-0 -87263-4 0  9998,2 52092  53.2161 177.2349 0001175 105.5517 254.5604 15.08847506108738,6917.857,95.437,540.535,538.91,0.0
52092.0,STARLINK-3716,PAYLOAD,2024-02-27 14:10:10,15.08852378,0.0001133,53.2155,176.0481,107.7243,252.3872,-4.2955e-05,-9.72e-06,0.0,0 STARLINK-3716,1 52092U 22029E   24058.59040155 -.00000972  00000-0 -42955-4 0  9990,2 52092  53.2155 176.0481 0001133 107.7243 252.3872 15.08852378108779,6917.843,95.437,540.491,538.924,0.0
52092.0,STARLINK-3716,PAYLOAD,2024-02-27 17:20:56,15.08861259,0.0001254,53.2158,175.4499,104.0703,256.0429,4.5568e-05,4.38e-06,0.0,0 STARLINK-3716,1 52092U 22029E   24058.72287247  .00000438  00000-0  45568-4 0  9998,2 52092  53.2158 175.4499 0001254 104.0703 256.0429 15.08861259108798,6917.815,95.436,540.548,538.813,0.0
52092.0,STARLINK-3716,PAYLOAD,2024-02-28 14:00:58,15.08831243,0.0001481,53.2166,171.5828,109.9816,250.1336,0.00015191,2.13e-05,0.0,0 STARLINK-3716,1 52092U 22029E   24059.58401268  .00002130  00000-0  15191-3 0  9993,2 52092  53.2166 171.5828 0001481 109.9816 250.1336 15.08831243108928,6917.907,95.438,540.797,538.748,0.0
52092.0,STARLINK-3716,PAYLOAD,2024-02-28 17:11:44,15.08839003,0.0001304,53.2167,170.9887,110.0112,250.1021,8.277e-05,1.03e-05,0.0,0 STARLINK-3716,1 52092U 22029E   24059.71648871  .00001030  00000-0  82770-4 0  9997,2 52092  53.2167 170.9887 0001304 110.0112 250.1021 15.08839003108948,6917.883,95.438,540.651,538.846,0.0
52092.0,STARLINK-3716,PAYLOAD,2024-02-29 13:51:45,15.08843225,0.0001268,53.2166,167.1236,93.9983,266.1154,-4.0478e-05,-9.32e-06,0.0,0 STARLINK-3716,1 52092U 22029E   24060.57761195 -.00000932  00000-0 -40478-4 0  9999,2 52092  53.2166 167.1236 0001268  93.9983 266.1154 15.08843225109077,6917.871,95.437,540.613,538.858,0.0
52092.0,STARLINK-3716,PAYLOAD,2024-03-01 13:42:32,15.08850377,0.0001291,53.2165,162.6659,96.6278,263.4861,0.00018143,2.602e-05,0.0,0 STARLINK-3716,1 52092U 22029E   24061.57120529  .00002602  00000-0  18143-3 0  9997,2 52092  53.2165 162.6659 0001291  96.6278 263.4861 15.08850377109226,6917.849,95.437,540.607,538.821,0.0
52092.0,STARLINK-3716,PAYLOAD,2024-03-02 11:57:56,15.08845638,0.0001385,53.2156,158.5034,91.8083,268.3068,0.00012048,1.63e-05,0.0,0 STARLINK-3716,1 52092U 22029E   24062.49856781  .00001630  00000-0  12048-3 0  9993,2 52092  53.2156 158.5034 0001385  91.8083 268.3068 15.08845638109364,6917.863,95.437,540.686,538.77,0.0
52092.0,STARLINK-3716,PAYLOAD,2024-03-03 11:48:43,15.08842749,0.0001384,53.2172,154.042,85.9197,274.1954,-2.8033e-05,-7.34e-06,0.0,0 STARLINK-3716,1 52092U 22029E   24063.49217253 -.00000734  00000-0 -28033-4 0  9997,2 52092  53.2172 154.0420 0001384  85.9197 274.1954 15.08842749109517,6917.872,95.437,540.694,538.78,0.0
52092.0,STARLINK-3716,PAYLOAD,2024-03-03 13:24:06,15.08842696,0.0001368,53.2171,153.7445,84.7728,275.342,-3.3142e-05,-8.15e-06,0.0,0 STARLINK-3716,1 52092U 22029E   24063.55841217 -.00000815  00000-0 -33142-4 0  9994,2 52092  53.2171 153.7445 0001368  84.7728 275.3420 15.08842696109521,6917.872,95.437,540.684,538.791,0.0
52092.0,STARLINK-3716,PAYLOAD,2024-03-04 13:14:51,15.08860491,0.0001405,53.2171,149.2832,81.2691,278.8461,0.00023266,3.419e-05,0.0,0 STARLINK-3716,1 52092U 22029E   24064.55199020  .00003419  00000-0  23266-3 0  9999,2 52092  53.2171 149.2832 0001405  81.2691 278.8461 15.08860491109676,6917.818,95.436,540.655,538.711,0.0
52092.0,STARLINK-3716,PAYLOAD,2024-03-04 22:47:12,15.08836298,0.000131,53.2166,147.4982,99.3014,260.8126,4.0055e-05,3.5e-06,0.0,0 STARLINK-3716,1 52092U 22029E   24064.94944827  .00000350  00000-0  40055-4 0  9992,2 52092  53.2166 147.4982 0001310  99.3014 260.8126 15.08836298109734,6917.892,95.438,540.663,538.85,0.0
52092.0,STARLINK-3716,PAYLOAD,2024-03-05 11:30:19,15.08817568,0.0001467,53.2167,145.1225,93.1374,266.9786,-0.00012263,-2.238e-05,0.0,0 STARLINK-3716,1 52092U 22029E   24065.47939084 -.00002238  00000-0 -12263-3 0  9998,2 52092  53.2167 145.1225 0001467  93.1374 266.9786 15.08817568109811,6917.949,95.439,540.829,538.799,0.0
52092.0,STARLINK-3716,PAYLOAD,2024-03-06 11:21:04,15.08847228,0.0001552,53.2162,140.6625,106.8064,253.3098,0.00012263,1.665e-05,0.0,0 STARLINK-3716,1 52092U 22029E   24066.47297136  .00001665  00000-0  12263-3 0  9995,2 52092  53.2162 140.6625 0001552 106.8064 253.3098 15.08847228109961,6917.858,95.437,540.797,538.65,0.0
52092.0,STARLINK-3716,PAYLOAD,2024-03-07 11:11:52,15.08838781,0.0001428,53.2174,136.1987,110.4673,249.6472,0.00021994,3.214e-05,0.0,0 STARLINK-3716,1 52092U 22029E   24067.46657562  .00003214  00000-0  21994-3 0  9991,2 52092  53.2174 136.1987 0001428 110.4673 249.6472 15.08838781110111,6917.884,95.438,540.737,538.761,0.0
52092.0,STARLINK-3716,PAYLOAD,2024-03-08 11:02:39,15.08843521,0.000136,53.217,131.7411,108.3589,251.7551,-5.0432e-06,-3.68e-06,0.0,0 STARLINK-3716,1 52092U 22029E   24068.46017792 -.00000368  00000-0 -50432-5 0  9997,2 52092  53.2170 131.7411 0001360 108.3589 251.7551 15.08843521110263,6917.87,95.437,540.675,538.794,0.0
52092.0,STARLINK-3716,PAYLOAD,2024-03-08 20:34:58,15.08845641,0.0001306,53.2167,129.9566,110.6743,249.439,-9.9783e-05,-1.876e-05,0.0,0 STARLINK-3716,1 52092U 22029E   24068.85761709 -.00001876  00000-0 -99783-4 0  9990,2 52092  53.2167 129.9566 0001306 110.6743 249.4390 15.08845641110324,6917.863,95.437,540.632,538.825,0.0
52092.0,STARLINK-3716,PAYLOAD,2024-03-09 04:31:54,15.08836681,0.0001294,53.2171,128.4693,106.4112,253.7022,1.2478e-05,-8.9e-07,0.0,0 STARLINK-3716,1 52092U 22029E   24069.18882145 -.00000089  00000-0  12478-4 0  9995,2 52092  53.2171 128.4693 0001294 106.4112 253.7022 15.08836681110372,6917.891,95.438,540.651,538.86,0.0
52092.0,STARLINK-3716,PAYLOAD,2024-03-09 10:53:26,15.08840036,0.0001337,53.217,127.2815,112.4961,247.6173,7.8803e-05,9.66e-06,0.0,0 STARLINK-3716,1 52092U 22029E   24069.45377789  .00000966  00000-0  78803-4 0  9995,2 52092  53.2170 127.2815 0001337 112.4961 247.6173 15.08840036110414,6917.88,95.438,540.67,538.82,0.0
